CZ-12 R/B               
1 67531U 26013K   26029.54311800  .00000271  00000+0  21651-3 0  9992
2 67531  49.9902 142.8353 0069060 163.0056 197.3188 14.14454871  1440
STARLINK-36587          
1 67532U 26014A   26033.50002314 -.01493120  00000+0 -74691-2 0  9995
2 67532  97.2817 276.5867 0001695  75.0446  29.7487 15.84347922  3035
STARLINK-36417          
1 67533U 26014B   26033.50002314 -.01496074  00000+0 -74550-2 0  9991
2 67533  97.2819 276.5875 0001743  78.5278  28.7952 15.84433315  3030
STARLINK-36576          
1 67534U 26014C   26033.50002314 -.01483367  00000+0 -73293-2 0  9996
2 67534  97.2820 276.5894 0001832  85.9240  25.7802 15.84585935  3031
STARLINK-36574          
1 67535U 26014D   26033.50002314 -.01485974  00000+0 -72610-2 0  9995
2 67535  97.2820 276.5919 0001436  80.3422  37.6223 15.84826469  3030
STARLINK-36572          
1 67536U 26014E   26033.50002314 -.01448107  00000+0 -71397-2 0  9994
2 67536  97.2820 276.5944 0001582  77.4187  46.3310 15.85039293  3032
STARLINK-36561          
1 67537U 26014F   26033.50002314 -.01453112  00000+0 -71077-2 0  9992
2 67537  97.2814 276.5960 0001580  76.6841  51.7376 15.85214252  3032
STARLINK-36397          
1 67538U 26014G   26033.50002314 -.01448198  00000+0 -70295-2 0  9992
2 67538  97.2812 276.5973 0001618  79.2882  53.2582 15.85361080  3039
STARLINK-36573          
1 67539U 26014H   26033.50002314 -.01438444  00000+0 -69119-2 0  9999
2 67539  97.2812 276.5994 0001481  79.5093  58.1949 15.85549713  3030
STARLINK-36585          
1 67540U 26014J   26033.50002314 -.01441869  00000+0 -68747-2 0  9992
2 67540  97.2806 276.6008 0001627  76.9152  65.2310 15.85714876  3036
STARLINK-36579          
1 67541U 26014K   26033.50002314 -.01446754  00000+0 -68249-2 0  9998
2 67541  97.2811 276.6038 0001639  75.3098  72.7946 15.85944031  3037
STARLINK-35934          
1 67542U 26014L   26033.50002314 -.01438894  00000+0 -67002-2 0  9991
2 67542  97.2808 276.6064 0001540  80.6605  74.0329 15.86193724  3022
